ERS-1                   
1 21574U 91050A   26077.94227797  .00000250  00000+0  94509-4 0  9990
2 21574  98.7874  96.4093 0032139 172.9222 187.2425 14.39456153817060
ARIANE 40 R/B           
1 21610U 91050F   26077.90187114  .00000255  00000+0  88835-4 0  9995
2 21610  98.1993 129.7919 0004060  61.1084 299.0514 14.42900156820326
INTERCOSMOS 25          
1 21819U 91086A   26077.57318155  .00001643  00000+0  31465-3 0  9997
2 21819  82.6037 304.6392 1486821  97.7940 279.3933 12.12031562497764
SL-8 R/B                
1 21876U 92008B   26077.96666218  .00000005  00000+0 -11192-4 0  9992
2 21876  82.9222 260.8751 0035848 108.2179   1.3912 13.75969659710695
SL-8 R/B                
1 21938U 92020B   26077.95274573  .00000057  00000+0  44111-4 0  9996
2 21938  82.9322 146.8847 0027544 271.7116 261.4771 13.75550156702405
USA 81                  
1 21949U 92023A   26077.88001484  .00000166  00000+0  54195-4 0  9996
2 21949  85.0066 126.1385 0002201  70.9854 289.1577 14.32370891 96109
COSMOS 2219             
1 22219U 92076A   26077.92915306 -.00000125  00000+0 -40602-4 0  9992
2 22219  71.0640 358.7552 0018441 194.1380 165.9229 14.14093372719684
SL-16 R/B               
1 22220U 92076B   26077.68255423  .00000239  00000+0  14277-3 0  9996
2 22220  71.0006 169.4320 0010600  79.7411  82.4192 14.16860316723100
COSMOS 2221             
1 22236U 92080A   26077.93326470  .00001791  00000+0  15612-3 0  9995
2 22236  82.5002 270.2243 0014836 156.5777 203.6124 14.96237168782174
SL-16 R/B               
1 22285U 92093B   26077.92662633  .00000194  00000+0  12369-3 0  9998
2 22285  71.0239 344.8770 0006282 284.3299  75.7127 14.15448046714469
COSMOS 2228             
1 22286U 92094A   26077.87663607  .00002213  00000+0  18854-3 0  9995
2 22286  82.5169 228.5133 0016606 271.2194  88.7126 14.97236704777435
SL-16 R/B               
1 22566U 93016B   26077.75591077 -.00000253  00000+0 -10519-3 0  9993
2 22566  71.0082 196.1403 0012287 302.3330  57.6602 14.15307929703455
