CCSDS_OMM_VERS = 2.0
CREATION_DATE  = 
ORIGINATOR     = 

OBJECT_NAME    = ERS-1
OBJECT_ID      = 1991-050A
CENTER_NAME    = EARTH
REF_FRAME      = TEME
TIME_SYSTEM    = UTC
MEAN_ELEMENT_THEORY = SGP/SGP4

EPOCH          = 2026-03-18T22:36:52.816608
MEAN_MOTION    = 14.39456153
ECCENTRICITY   = .00321398
INCLINATION    = 98.7874
RA_OF_ASC_NODE = 96.4093
ARG_OF_PERICENTER = 172.9222
MEAN_ANOMALY   = 187.2425

EPHEMERIS_TYPE = 0
CLASSIFICATION_TYPE = U
NORAD_CAT_ID   = 21574
ELEMENT_SET_NO = 999
REV_AT_EPOCH   = 81706
BSTAR          = .94508774E-4
MEAN_MOTION_DOT = .25E-5
MEAN_MOTION_DDOT = 0

CCSDS_OMM_VERS = 2.0
CREATION_DATE  = 
ORIGINATOR     = 

OBJECT_NAME    = ARIANE 40 R/B
OBJECT_ID      = 1991-050F
CENTER_NAME    = EARTH
REF_FRAME      = TEME
TIME_SYSTEM    = UTC
MEAN_ELEMENT_THEORY = SGP/SGP4

EPOCH          = 2026-03-18T21:38:41.666496
MEAN_MOTION    = 14.42900156
ECCENTRICITY   = .00040603
INCLINATION    = 98.1993
RA_OF_ASC_NODE = 129.7919
ARG_OF_PERICENTER = 61.1084
MEAN_ANOMALY   = 299.0514

EPHEMERIS_TYPE = 0
CLASSIFICATION_TYPE = U
NORAD_CAT_ID   = 21610
ELEMENT_SET_NO = 999
REV_AT_EPOCH   = 82032
BSTAR          = .88834634E-4
MEAN_MOTION_DOT = .255E-5
MEAN_MOTION_DDOT = 0

CCSDS_OMM_VERS = 2.0
CREATION_DATE  = 
ORIGINATOR     = 

OBJECT_NAME    = INTERCOSMOS 25
OBJECT_ID      = 1991-086A
CENTER_NAME    = EARTH
REF_FRAME      = TEME
TIME_SYSTEM    = UTC
MEAN_ELEMENT_THEORY = SGP/SGP4

EPOCH          = 2026-03-18T13:45:22.885920
MEAN_MOTION    = 12.12031562
ECCENTRICITY   = .14868213
INCLINATION    = 82.6037
RA_OF_ASC_NODE = 304.6392
ARG_OF_PERICENTER = 97.7940
MEAN_ANOMALY   = 279.3933

EPHEMERIS_TYPE = 0
CLASSIFICATION_TYPE = U
NORAD_CAT_ID   = 21819
ELEMENT_SET_NO = 999
REV_AT_EPOCH   = 49776
BSTAR          = .31464693E-3
MEAN_MOTION_DOT = .1643E-4
MEAN_MOTION_DDOT = 0

CCSDS_OMM_VERS = 2.0
CREATION_DATE  = 
ORIGINATOR     = 

OBJECT_NAME    = SL-8 R/B
OBJECT_ID      = 1992-008B
CENTER_NAME    = EARTH
REF_FRAME      = TEME
TIME_SYSTEM    = UTC
MEAN_ELEMENT_THEORY = SGP/SGP4

EPOCH          = 2026-03-18T23:11:59.612352
MEAN_MOTION    = 13.75969659
ECCENTRICITY   = .00358486
INCLINATION    = 82.9222
RA_OF_ASC_NODE = 260.8751
ARG_OF_PERICENTER = 108.2179
MEAN_ANOMALY   = 1.3912

EPHEMERIS_TYPE = 0
CLASSIFICATION_TYPE = U
NORAD_CAT_ID   = 21876
ELEMENT_SET_NO = 999
REV_AT_EPOCH   = 71069
BSTAR          = -.11191867E-4
MEAN_MOTION_DOT = .5E-7
MEAN_MOTION_DDOT = 0

CCSDS_OMM_VERS = 2.0
CREATION_DATE  = 
ORIGINATOR     = 

OBJECT_NAME    = SL-8 R/B
OBJECT_ID      = 1992-020B
CENTER_NAME    = EARTH
REF_FRAME      = TEME
TIME_SYSTEM    = UTC
MEAN_ELEMENT_THEORY = SGP/SGP4

EPOCH          = 2026-03-18T22:51:57.231072
MEAN_MOTION    = 13.75550156
ECCENTRICITY   = .00275446
INCLINATION    = 82.9322
RA_OF_ASC_NODE = 146.8847
ARG_OF_PERICENTER = 271.7116
MEAN_ANOMALY   = 261.4771

EPHEMERIS_TYPE = 0
CLASSIFICATION_TYPE = U
NORAD_CAT_ID   = 21938
ELEMENT_SET_NO = 999
REV_AT_EPOCH   = 70240
BSTAR          = .44110807E-4
MEAN_MOTION_DOT = .57E-6
MEAN_MOTION_DDOT = 0

CCSDS_OMM_VERS = 2.0
CREATION_DATE  = 
ORIGINATOR     = 

OBJECT_NAME    = USA 81
OBJECT_ID      = 1992-023A
CENTER_NAME    = EARTH
REF_FRAME      = TEME
TIME_SYSTEM    = UTC
MEAN_ELEMENT_THEORY = SGP/SGP4

EPOCH          = 2026-03-18T21:07:13.282176
MEAN_MOTION    = 14.32370891
ECCENTRICITY   = .00022019
INCLINATION    = 85.0066
RA_OF_ASC_NODE = 126.1385
ARG_OF_PERICENTER = 70.9854
MEAN_ANOMALY   = 289.1577

EPHEMERIS_TYPE = 0
CLASSIFICATION_TYPE = U
NORAD_CAT_ID   = 21949
ELEMENT_SET_NO = 999
REV_AT_EPOCH   = 9610
BSTAR          = .54194649E-4
MEAN_MOTION_DOT = .166E-5
MEAN_MOTION_DDOT = 0

CCSDS_OMM_VERS = 2.0
CREATION_DATE  = 
ORIGINATOR     = 

OBJECT_NAME    = COSMOS 2219
OBJECT_ID      = 1992-076A
CENTER_NAME    = EARTH
REF_FRAME      = TEME
TIME_SYSTEM    = UTC
MEAN_ELEMENT_THEORY = SGP/SGP4

EPOCH          = 2026-03-18T22:17:58.824384
MEAN_MOTION    = 14.14093372
ECCENTRICITY   = .00184412
INCLINATION    = 71.0640
RA_OF_ASC_NODE = 358.7552
ARG_OF_PERICENTER = 194.1380
MEAN_ANOMALY   = 165.9229

EPHEMERIS_TYPE = 0
CLASSIFICATION_TYPE = U
NORAD_CAT_ID   = 22219
ELEMENT_SET_NO = 999
REV_AT_EPOCH   = 71968
BSTAR          = -.4060202E-4
MEAN_MOTION_DOT = -.125E-5
MEAN_MOTION_DDOT = 0

CCSDS_OMM_VERS = 2.0
CREATION_DATE  = 
ORIGINATOR     = 

OBJECT_NAME    = SL-16 R/B
OBJECT_ID      = 1992-076B
CENTER_NAME    = EARTH
REF_FRAME      = TEME
TIME_SYSTEM    = UTC
MEAN_ELEMENT_THEORY = SGP/SGP4

EPOCH          = 2026-03-18T16:22:52.685472
MEAN_MOTION    = 14.16860316
ECCENTRICITY   = .00106002
INCLINATION    = 71.0006
RA_OF_ASC_NODE = 169.4320
ARG_OF_PERICENTER = 79.7411
MEAN_ANOMALY   = 82.4192

EPHEMERIS_TYPE = 0
CLASSIFICATION_TYPE = U
NORAD_CAT_ID   = 22220
ELEMENT_SET_NO = 999
REV_AT_EPOCH   = 72310
BSTAR          = .14277065E-3
MEAN_MOTION_DOT = .239E-5
MEAN_MOTION_DDOT = 0

CCSDS_OMM_VERS = 2.0
CREATION_DATE  = 
ORIGINATOR     = 

OBJECT_NAME    = COSMOS 2221
OBJECT_ID      = 1992-080A
CENTER_NAME    = EARTH
REF_FRAME      = TEME
TIME_SYSTEM    = UTC
MEAN_ELEMENT_THEORY = SGP/SGP4

EPOCH          = 2026-03-18T22:23:54.070080
MEAN_MOTION    = 14.96237168
ECCENTRICITY   = .00148363
INCLINATION    = 82.5002
RA_OF_ASC_NODE = 270.2243
ARG_OF_PERICENTER = 156.5777
MEAN_ANOMALY   = 203.6124

EPHEMERIS_TYPE = 0
CLASSIFICATION_TYPE = U
NORAD_CAT_ID   = 22236
ELEMENT_SET_NO = 999
REV_AT_EPOCH   = 78217
BSTAR          = .15612082E-3
MEAN_MOTION_DOT = .1791E-4
MEAN_MOTION_DDOT = 0

CCSDS_OMM_VERS = 2.0
CREATION_DATE  = 
ORIGINATOR     = 

OBJECT_NAME    = SL-16 R/B
OBJECT_ID      = 1992-093B
CENTER_NAME    = EARTH
REF_FRAME      = TEME
TIME_SYSTEM    = UTC
MEAN_ELEMENT_THEORY = SGP/SGP4

EPOCH          = 2026-03-18T22:14:20.514912
MEAN_MOTION    = 14.15448046
ECCENTRICITY   = .00062826
INCLINATION    = 71.0239
RA_OF_ASC_NODE = 344.8770
ARG_OF_PERICENTER = 284.3299
MEAN_ANOMALY   = 75.7127

EPHEMERIS_TYPE = 0
CLASSIFICATION_TYPE = U
NORAD_CAT_ID   = 22285
ELEMENT_SET_NO = 999
REV_AT_EPOCH   = 71446
BSTAR          = .12369204E-3
MEAN_MOTION_DOT = .194E-5
MEAN_MOTION_DDOT = 0

CCSDS_OMM_VERS = 2.0
CREATION_DATE  = 
ORIGINATOR     = 

OBJECT_NAME    = COSMOS 2228
OBJECT_ID      = 1992-094A
CENTER_NAME    = EARTH
REF_FRAME      = TEME
TIME_SYSTEM    = UTC
MEAN_ELEMENT_THEORY = SGP/SGP4

EPOCH          = 2026-03-18T21:02:21.356448
MEAN_MOTION    = 14.97236704
ECCENTRICITY   = .00166063
INCLINATION    = 82.5169
RA_OF_ASC_NODE = 228.5133
ARG_OF_PERICENTER = 271.2194
MEAN_ANOMALY   = 88.7126

EPHEMERIS_TYPE = 0
CLASSIFICATION_TYPE = U
NORAD_CAT_ID   = 22286
ELEMENT_SET_NO = 999
REV_AT_EPOCH   = 77743
BSTAR          = .1885367E-3
MEAN_MOTION_DOT = .2213E-4
MEAN_MOTION_DDOT = 0

CCSDS_OMM_VERS = 2.0
CREATION_DATE  = 
ORIGINATOR     = 

OBJECT_NAME    = SL-16 R/B
OBJECT_ID      = 1993-016B
CENTER_NAME    = EARTH
REF_FRAME      = TEME
TIME_SYSTEM    = UTC
MEAN_ELEMENT_THEORY = SGP/SGP4

EPOCH          = 2026-03-18T18:08:30.690528
MEAN_MOTION    = 14.15307929
ECCENTRICITY   = .00122879
INCLINATION    = 71.0082
RA_OF_ASC_NODE = 196.1403
ARG_OF_PERICENTER = 302.3330
MEAN_ANOMALY   = 57.6602

EPHEMERIS_TYPE = 0
CLASSIFICATION_TYPE = U
NORAD_CAT_ID   = 22566
ELEMENT_SET_NO = 999
REV_AT_EPOCH   = 70345
BSTAR          = -.10518516E-3
MEAN_MOTION_DOT = -.253E-5
MEAN_MOTION_DDOT = 0

